[{"OBJECT_NAME":"STARLINK-11381 [DTC]","OBJECT_ID":"2024-220G","EPOCH":"2026-03-09T22:36:30.901248","MEAN_MOTION":15.71105417,"ECCENTRICITY":0.00019681,"INCLINATION":42.9978,"RA_OF_ASC_NODE":41.4822,"ARG_OF_PERICENTER":205.6885,"MEAN_ANOMALY":154.3885,"EPHEMERIS_TYPE":0,"CLASSIFICATION_TYPE":"U","NORAD_CAT_ID":62094,"ELEMENT_SET_NO":999,"REV_AT_EPOCH":7499,"BSTAR":0.0023646513,"MEAN_MOTION_DOT":0.00318414,"MEAN_MOTION_DDOT":0},{"OBJECT_NAME":"SL-16 DEB","OBJECT_ID":"1992-093LF","EPOCH":"2026-03-01T22:50:07.505664","MEAN_MOTION":15.66314523,"ECCENTRICITY":0.0005733,"INCLINATION":71.2496,"RA_OF_ASC_NODE":309.1259,"ARG_OF_PERICENTER":53.7691,"MEAN_ANOMALY":306.4041,"EPHEMERIS_TYPE":0,"CLASSIFICATION_TYPE":"U","NORAD_CAT_ID":39853,"ELEMENT_SET_NO":999,"REV_AT_EPOCH":63666,"BSTAR":0.0026636,"MEAN_MOTION_DOT":0.00285901,"MEAN_MOTION_DDOT":0}]
